{
  "type": "FeatureCollection",
  "features": [
    {
      "type": "Feature",
      "properties": {},
      "geometry": {
        "coordinates": [
          [
            [
              106.74063638257758,
              -6.217430812930672
            ],
            [
              106.74063638257758,
              -6.218048983883534
            ],
            [
              106.74145401223979,
              -6.218048983883534
            ],
            [
              106.74145401223979,
              -6.217430812930672
            ],
            [
              106.74063638257758,
              -6.217430812930672
            ]
          ]
        ],
        "type": "Polygon"
      }
    }
  ]
}
